MAKERSAT 0              
1 43016U 17073D   26086.90532907  .00020579  00000+0  60851-3 0  9994
2 43016  97.4755 328.9524 0114545 200.6471 159.0122 15.28592894454035
SIRION PATHFINDER-2     
1 43759U 18099B   26086.69899130  .00005264  00000+0  29540-3 0  9991
2 43759  97.4358 137.7004 0008073 212.9666 147.1063 15.13746426400294
CORVUS BC4              
1 43767U 18099K   26086.92828920  .00005068  00000+0  30038-3 0  9991
2 43767  97.4177 132.2868 0006767 283.6372  76.4105 15.11799700400121
M2 PATHFINDER           
1 45727U 20037E   26086.77274432  .00002064  00000+0  15258-3 0  9990
2 45727  97.8177 277.0950 0013272  71.6630 288.6038 15.04293276313252
NETSAT-4                
1 46504U 20068U   26086.90557701  .00018291  00000+0  44404-3 0  9990
2 46504  97.8644  88.7828 0003745 239.4949 120.5927 15.41082630303247
NETSAT-3                
1 46505U 20068V   26086.91159039  .00019396  00000+0  49121-3 0  9992
2 46505  97.8685  87.1182 0003288 266.5830  93.5038 15.39782050303164
NETSAT-1                
1 46506U 20068W   26086.90429424  .00014395  00000+0  45961-3 0  9992
2 46506  97.8755  82.3542 0003397 306.6005  53.4923 15.32597392302849
NETSAT-2                
1 46507U 20068X   26086.51938081  .00022143  00000+0  51320-3 0  9990
2 46507  97.8657  88.0123 0001846 299.5143  60.5919 15.42444650303135
GREENCUBE (IO-117)      
1 53109U 22080E   26086.16390946 -.00000003  00000+0  00000+0 0  9992
2 53109  70.1561 326.7815 0008975 307.9113  52.0735  6.42583145 86795
SITRO-AIS 5 (KATYS)     
1 57176U 23091L   26086.89360092  .00012639  00000+0  47049-3 0  9997
2 57176  97.5146 150.1040 0012299  37.1725 323.0363 15.27554803151927
SITRO-AIS 6 (CHIRKIN)   
1 57192U 23091AC  26086.89491022  .00006976  00000+0  28455-3 0  9990
2 57192  97.5152 149.6250 0013200  39.4751 320.7445 15.24677842151892
SITRO-AIS 8 (ANOKHIN)   
1 57193U 23091AD  26086.91355326  .00015268  00000+0  52837-3 0  9995
2 57193  97.5139 151.4040 0011332  34.6083 325.5892 15.29912288152010
SITRO-AIS 7 (FARTUSHNIY)
1 57194U 23091AE  26086.88254401  .00006295  00000+0  25913-3 0  9999
2 57194  97.5151 149.4763 0013104  40.3367 319.8839 15.24408390151882
SITRO-AIS 10 (BURDAEV)  
1 57199U 23091AK  26086.93866911  .00021338  00000+0  61930-3 0  9999
2 57199  97.5153 155.7053 0006663  16.4214 343.7243 15.35510953152289
SITRO-AIS 9 (SHCHUKIN)  
1 57201U 23091AM  26086.94146078  .00020373  00000+0  59892-3 0  9991
2 57201  97.5152 155.4962 0006920  15.7965 344.3492 15.35116231152272
SITRO-AIS 12 (SMIRENNIY)
1 57204U 23091AQ  26086.88163122  .00020179  00000+0  58858-3 0  9991
2 57204  97.5163 155.8538 0006403   9.7955 350.3412 15.35369111152285
SITRO-AIS 11 (SHEFFER)  
1 57208U 23091AU  26086.91580263  .00020714  00000+0  59714-3 0  9995
2 57208  97.5161 156.0880 0006332  10.2803 349.8569 15.35732127152300
SITRO-AIS 25            
1 59066U 24039R   26086.95368198  .00004231  00000+0  33659-3 0  9993
2 59066  95.3930 179.2906 0144551 251.7109 106.8344 14.92786393112604
SITRO-AIS 26            
1 59067U 24039S   26086.94437752  .00004743  00000+0  37858-3 0  9999
2 59067  95.3931 179.1979 0144812 252.2209 106.3170 14.92596452112597
SITRO-AIS 27            
1 59068U 24039T   26086.93688100  .00005216  00000+0  41253-3 0  9994
2 59068  95.3932 179.4278 0143927 251.0112 107.5472 14.92995416112614
SITRO-AIS 28            
1 59071U 24039U   26086.91620450  .00004454  00000+0  35238-3 0  9999
2 59071  95.3928 179.4564 0143982 250.9582 107.6001 14.93026759112616
GRBBETA                 
1 60237U 24128C   26086.56907440  .00003381  00000+0  23950-3 0  9998
2 60237  61.9894 142.4809 0049756 117.5367 243.0795 15.05973419 93978
OOV-CUBE (TUBSAT-30)    
1 60240U 24128F   26086.86680507  .00002123  00000+0  17089-3 0  9996
2 60240  61.9946 149.0484 0052987 116.0839 244.5719 15.02366686 93892
ROBUSTA-3A (MEDITERRAN*)
1 60243U 24128J   26086.47483658  .00006842  00000+0  41527-3 0  9990
2 60243  61.9860 136.9289 0050086 111.4992 249.1454 15.10411996 94077
LASARSAT                
1 62391U 24247Q   26086.12579631  .00035185  00000+0  83037-3 0  9991
2 62391  44.9773   1.6025 0003942 193.2353 166.8432 15.41324185 70635
CROCUBE                 
1 62394U 24247T   26086.46570877  .00034609  00000+0  78272-3 0  9999
2 62394  44.9747 358.1414 0003566 193.3157 166.7637 15.42609212 70708
FORESAIL-1 PRIME        
1 66778U 25276DS  26086.73644689  .00005261  00000+0  26272-3 0  9990
2 66778  97.4250 161.5279 0003418  57.6041 302.5523 15.17903505 18042
KNACKSAT-2              
1 67683U 98067XZ  26086.42854591  .00036813  00000+0  57723-3 0  9997
2 67683  51.6325 343.6129 0009914 250.0621 109.9301 15.53279398  7542
